NORAD_CAT_ID,OBJECT_NAME,OBJECT_TYPE,EPOCH,MEAN_MOTION,ECCENTRICITY,INCLINATION,RA_OF_ASC_NODE,ARG_OF_PERICENTER,MEAN_ANOMALY,BSTAR,MEAN_MOTION_DOT,MEAN_MOTION_DDOT,TLE_LINE0,TLE_LINE1,TLE_LINE2,SEMIMAJOR_AXIS,PERIOD,APOGEE,PERIGEE,DECAYED
53427.0,STARLINK-4541,PAYLOAD,2023-04-16 11:26:22,15.08833076,0.0001267,53.2159,184.6262,85.7305,274.3832,-8.377e-06,-4.21e-06,0.0,0 STARLINK-4541,1 53427U 22097AR  23106.47664594 -.00000421  00000-0 -83770-5 0  9997,2 53427  53.2159 184.6262 0001267  85.7305 274.3832 15.08833076 38899,6917.902,95.438,540.643,538.89,0.0
53427.0,STARLINK-4541,PAYLOAD,2023-04-17 11:17:08,15.08848662,0.0001228,53.2145,180.163,96.3978,263.7154,0.00022404,3.28e-05,0.0,0 STARLINK-4541,1 53427U 22097AR  23107.47024008  .00003280  00000-0  22404-3 0  9997,2 53427  53.2145 180.1630 0001228  96.3978 263.7154 15.08848662 38565,6917.854,95.437,540.568,538.869,0.0
53427.0,STARLINK-4541,PAYLOAD,2023-04-17 14:27:54,15.0885275,0.000128,53.2134,179.5677,101.8582,258.2554,0.00024162,3.561e-05,0.0,0 STARLINK-4541,1 53427U 22097AR  23107.60271750  .00003561  00000-0  24162-3 0  9995,2 53427  53.2134 179.5677 0001280 101.8582 258.2554 15.08852750 39069,6917.841,95.437,540.592,538.821,0.0
53427.0,STARLINK-4541,PAYLOAD,2023-04-18 09:32:32,15.0884165,0.0001437,53.2139,175.9974,118.928,241.1857,0.00018013,2.58e-05,0.0,0 STARLINK-4541,1 53427U 22097AR  23108.39760244  .00002580  00000-0  18013-3 0  9991,2 53427  53.2139 175.9974 0001437 118.9280 241.1857 15.08841650 39189,6917.875,95.437,540.734,538.746,0.0
53427.0,STARLINK-4541,PAYLOAD,2023-04-18 14:18:42,15.08845324,0.0001395,53.2141,175.1062,111.2636,248.8505,0.00016474,2.335e-05,0.0,0 STARLINK-4541,1 53427U 22097AR  23108.59632129  .00002335  00000-0  16474-3 0  9990,2 53427  53.2141 175.1062 0001395 111.2636 248.8505 15.08845324 38732,6917.864,95.437,540.694,538.764,0.0
53427.0,STARLINK-4541,PAYLOAD,2023-04-19 04:37:10,15.08836839,0.0001578,53.2137,172.4307,100.8571,259.2599,1.7608e-05,-8e-08,0.0,0 STARLINK-4541,1 53427U 22097AR  23109.19248814 -.00000008  00000-0  17608-4 0  9998,2 53427  53.2137 172.4307 0001578 100.8571 259.2599 15.08836839 38824,6917.89,95.438,540.847,538.663,0.0
53427.0,STARLINK-4541,PAYLOAD,2023-04-19 09:23:20,15.08833514,0.0001279,53.2153,171.5396,100.6767,259.4369,3.839e-05,3.23e-06,0.0,0 STARLINK-4541,1 53427U 22097AR  23109.39120999  .00000323  00000-0  38390-4 0  9993,2 53427  53.2153 171.5396 0001279 100.6767 259.4369 15.08833514 39334,6917.9,95.438,540.65,538.88,0.0
53427.0,STARLINK-4541,PAYLOAD,2023-04-19 20:31:02,15.08841151,0.0001357,53.2151,169.458,92.9865,267.1282,9.1174e-05,1.163e-05,0.0,0 STARLINK-4541,1 53427U 22097AR  23109.85488723  .00001163  00000-0  91174-4 0  9998,2 53427  53.2151 169.4580 0001357  92.9865 267.1282 15.08841151 39406,6917.877,95.437,540.681,538.803,0.0
53427.0,STARLINK-4541,PAYLOAD,2023-04-20 12:24:53,15.08847225,0.0001362,53.2153,166.4848,91.2256,268.8892,0.00023262,3.417e-05,0.0,0 STARLINK-4541,1 53427U 22097AR  23110.51728483  .00003417  00000-0  23262-3 0  9999,2 53427  53.2153 166.4848 0001362  91.2256 268.8892 15.08847225 39508,6917.858,95.437,540.666,538.781,0.0
53427.0,STARLINK-4541,PAYLOAD,2023-04-21 04:18:45,15.08833444,0.0001216,53.2154,163.5109,83.6455,276.4675,5.7051e-05,6.2e-06,0.0,0 STARLINK-4541,1 53427U 22097AR  23111.17969366  .00000620  00000-0  57051-4 0  9996,2 53427  53.2154 163.5109 0001216  83.6455 276.4675 15.08833444 39121,6917.9,95.438,540.607,538.924,0.0
53427.0,STARLINK-4541,PAYLOAD,2023-04-21 12:15:41,15.08837511,0.0001248,53.2153,162.0241,84.276,275.8374,9.2089e-05,1.178e-05,0.0,0 STARLINK-4541,1 53427U 22097AR  23111.51089241  .00001178  00000-0  92089-4 0  9998,2 53427  53.2153 162.0241 0001248  84.2760 275.8374 15.08837511 39658,6917.888,95.438,540.616,538.89,0.0
53427.0,STARLINK-4541,PAYLOAD,2023-04-21 20:12:36,15.08842076,0.0001324,53.2142,160.5372,85.5848,274.5296,0.00011163,1.489e-05,0.0,0 STARLINK-4541,1 53427U 22097AR  23111.84209066  .00001489  00000-0  11163-3 0  9991,2 53427  53.2142 160.5372 0001324  85.5848 274.5296 15.08842076 39707,6917.874,95.437,540.655,538.823,0.0
53427.0,STARLINK-4541,PAYLOAD,2023-04-22 02:34:08,15.08845758,0.000132,53.2138,159.3464,87.4196,272.6947,0.00014347,1.997e-05,0.0,0 STARLINK-4541,1 53427U 22097AR  23112.10704842  .00001997  00000-0  14347-3 0  9994,2 53427  53.2138 159.3464 0001320  87.4196 272.6947 15.08845758 39266,6917.863,95.437,540.641,538.815,0.0
53427.0,STARLINK-4541,PAYLOAD,2023-04-22 20:03:23,15.08843608,0.0001688,53.2143,156.0777,76.6294,283.4886,0.00011059,1.473e-05,0.0,0 STARLINK-4541,1 53427U 22097AR  23112.83568778  .00001473  00000-0  11059-3 0  9996,2 53427  53.2143 156.0777 0001688  76.6294 283.4886 15.08843608 39858,6917.869,95.437,540.902,538.567,0.0
53427.0,STARLINK-4541,PAYLOAD,2023-04-23 11:57:14,15.08845406,0.0001306,53.2133,153.1018,77.4188,282.695,0.00013264,1.824e-05,0.0,0 STARLINK-4541,1 53427U 22097AR  23113.49808577  .00001824  00000-0  13264-3 0  9993,2 53427  53.2133 153.1018 0001306  77.4188 282.6950 15.08845406 39470,6917.864,95.437,540.632,538.825,0.0
53427.0,STARLINK-4541,PAYLOAD,2023-04-24 11:48:00,15.08878611,0.0001518,53.2137,148.6407,80.432,279.6843,0.00085372,0.00013339,0.0,0 STARLINK-4541,1 53427U 22097AR  23114.49167708  .00013339  00000-0  85372-3 0  9991,2 53427  53.2137 148.6407 0001518  80.4320 279.6843 15.08878611 39620,6917.762,95.435,540.677,538.577,0.0
53427.0,STARLINK-4541,PAYLOAD,2023-04-24 19:44:57,15.08837817,0.0002275,53.2144,147.1559,66.8134,293.3097,3.203e-06,-2.37e-06,0.0,0 STARLINK-4541,1 53427U 22097AR  23114.82288546 -.00000237  00000-0  32030-5 0  9991,2 53427  53.2144 147.1559 0002275  66.8134 293.3097 15.08837817 39674,6917.887,95.438,541.326,538.178,0.0
53427.0,STARLINK-4541,PAYLOAD,2023-04-25 08:28:04,15.08794462,0.0001649,53.214,144.7757,80.4537,279.6642,-0.00088594,-0.00014343,0.0,0 STARLINK-4541,1 53427U 22097AR  23115.35282944 -.00014343  00000-0 -88594-3 0  9994,2 53427  53.2140 144.7757 0001649  80.4537 279.6642 15.08794462 39756,6918.02,95.44,541.025,538.744,0.0
53427.0,STARLINK-4541,PAYLOAD,2023-04-26 11:29:38,15.08845511,0.0002322,53.2154,139.7182,86.8459,273.2799,0.00090915,0.00014213,0.0,0 STARLINK-4541,1 53427U 22097AR  23116.47891502  .00014213  00000-0  90915-3 0  9998,2 53427  53.2154 139.7182 0002322  86.8459 273.2799 15.08845511 40408,6917.864,95.437,541.335,538.122,0.0
53427.0,STARLINK-4541,PAYLOAD,2023-04-27 06:34:14,15.08874875,0.0001987,53.2151,136.1512,93.8717,266.2502,0.0006127,9.486e-05,0.0,0 STARLINK-4541,1 53427U 22097AR  23117.27377903  .00009486  00000-0  61270-3 0  9999,2 53427  53.2151 136.1512 0001987  93.8717 266.2502 15.08874875 40526,6917.774,95.435,541.013,538.264,0.0
53427.0,STARLINK-4541,PAYLOAD,2023-04-28 06:25:00,15.08851587,0.0002159,53.2155,131.6936,108.7218,251.4009,-0.00018641,-3.255e-05,0.0,0 STARLINK-4541,1 53427U 22097AR  23118.26737125 -.00003255  00000-0 -18641-3 0  9999,2 53427  53.2155 131.6936 0002159 108.7218 251.4009 15.08851587 40190,6917.845,95.437,541.204,538.216,0.0
53427.0,STARLINK-4541,PAYLOAD,2023-04-28 09:35:47,15.088492,0.0001922,53.2151,131.0969,95.3626,264.7585,-0.00013482,-2.434e-05,0.0,0 STARLINK-4541,1 53427U 22097AR  23118.39985433 -.00002434  00000-0 -13482-3 0  9996,2 53427  53.2151 131.0969 0001922  95.3626 264.7585 15.08849200 40697,6917.852,95.437,541.047,538.388,0.0
53427.0,STARLINK-4541,PAYLOAD,2023-04-28 17:32:43,15.08845073,0.0001881,53.2157,129.61,94.5279,265.5928,-8.4438e-05,-1.632e-05,0.0,0 STARLINK-4541,1 53427U 22097AR  23118.73106181 -.00001632  00000-0 -84438-4 0  9998,2 53427  53.2157 129.6100 0001881  94.5279 265.5928 15.08845073 40269,6917.865,95.437,541.031,538.429,0.0
53427.0,STARLINK-4541,PAYLOAD,2023-04-29 07:51:11,15.08839146,0.0001903,53.2154,126.934,99.2363,260.8844,-7.4336e-05,-1.471e-05,0.0,0 STARLINK-4541,1 53427U 22097AR  23119.32722216 -.00001471  00000-0 -74336-4 0  9994,2 53427  53.2154 126.9340 0001903  99.2363 260.8844 15.08839146 40835,6917.883,95.438,541.064,538.432,0.0
53427.0,STARLINK-4541,PAYLOAD,2023-04-29 23:45:03,15.08838265,0.0001863,53.2158,123.9599,97.4575,262.6629,4.7016e-05,4.6e-06,0.0,0 STARLINK-4541,1 53427U 22097AR  23119.98961840  .00000460  00000-0  47016-4 0  9994,2 53427  53.2158 123.9599 0001863  97.4575 262.6629 15.08838265 40452,6917.886,95.438,541.039,538.462,0.0
53427.0,STARLINK-4541,PAYLOAD,2023-04-30 12:28:07,15.08841411,0.0001808,53.2154,121.5801,94.0937,266.0262,6.5238e-05,7.5e-06,0.0,0 STARLINK-4541,1 53427U 22097AR  23120.51953630  .00000750  00000-0  65238-4 0  9991,2 53427  53.2154 121.5801 0001808  94.0937 266.0262 15.08841411 41013,6917.876,95.437,540.992,538.49,0.0
53427.0,STARLINK-4541,PAYLOAD,2023-05-01 05:57:23,15.08832386,0.0001752,53.2153,118.3074,95.1561,264.9631,3.3495e-05,2.45e-06,0.0,0 STARLINK-4541,1 53427U 22097AR  23121.24818624  .00000245  00000-0  33495-4 0  9994,2 53427  53.2153 118.3074 0001752  95.1561 264.9631 15.08832386 40647,6917.904,95.438,540.981,538.557,0.0
53427.0,STARLINK-4541,PAYLOAD,2023-05-01 09:08:09,15.0883253,0.0001755,53.2153,117.7128,94.8427,265.2765,3.2723e-05,2.33e-06,0.0,0 STARLINK-4541,1 53427U 22097AR  23121.38066676  .00000233  00000-0  32723-4 0  9991,2 53427  53.2153 117.7128 0001755  94.8427 265.2765 15.08832530 41149,6917.903,95.438,540.982,538.554,0.0
53427.0,STARLINK-4541,PAYLOAD,2023-05-02 05:48:09,15.0884442,0.0001738,53.2155,113.8472,94.7466,265.3725,6.3772e-05,7.27e-06,0.0,0 STARLINK-4541,1 53427U 22097AR  23122.24177941  .00000727  00000-0  63772-4 0  9991,2 53427  53.2155 113.8472 0001738  94.7466 265.3725 15.08844420 40791,6917.867,95.437,540.934,538.53,0.0
53427.0,STARLINK-4541,PAYLOAD,2023-05-02 08:58:55,15.08845684,0.000174,53.2156,113.2522,95.8076,264.3114,7.2284e-05,8.63e-06,0.0,0 STARLINK-4541,1 53427U 22097AR  23122.37425795  .00000863  00000-0  72284-4 0  9997,2 53427  53.2156 113.2522 0001740  95.8076 264.3114 15.08845684 41294,6917.863,95.437,540.932,538.524,0.0
